OBJECT_NAME,OBJECT_ID,EPOCH,MEAN_MOTION,ECCENTRICITY,INCLINATION,RA_OF_ASC_NODE,ARG_OF_PERICENTER,MEAN_ANOMALY,EPHEMERIS_TYPE,CLASSIFICATION_TYPE,NORAD_CAT_ID,ELEMENT_SET_NO,REV_AT_EPOCH,BSTAR,MEAN_MOTION_DOT,MEAN_MOTION_DDOT
ARABSAT-7B (BADR-8),2023-075A,2026-06-09T04:54:22.560192,1.00274137,.0004751,0.0760,28.2038,356.4437,332.5435,0,U,56757,999,1103,0,.162E-5,0
NVS-01 (IRNSS-1J),2023-076A,2026-06-09T07:06:32.974272,1.00269087,.00030165,2.1858,244.7175,39.7195,209.4555,0,U,56759,999,1103,0,-.318E-5,0
NUSANTARA TIGA (SATRIA),2023-086A,2026-06-09T05:28:35.870880,1.00269274,.0003543,0.0369,344.3896,2.2400,139.1304,0,U,57045,999,968,0,-.218E-5,0
H2SAT (HEINRICH HERTZ),2023-093A,2026-06-09T06:17:38.674752,1.00272252,.00015757,0.0534,112.5444,24.6688,215.5286,0,U,57213,999,1083,0,.19E-6,0
SYRACUSE 4B,2023-093B,2026-06-09T04:02:38.567616,1.00270453,.00002235,0.0189,344.6046,235.0158,92.1727,0,U,57214,999,688,0,0,0
JUPITER 3 (ECHOSTAR 24),2023-108A,2026-06-08T13:13:12.243360,1.00270887,.00012599,0.0204,336.8423,100.9544,282.2174,0,U,57479,999,1055,0,0,0
GALAXY 37 (G-37),2023-112A,2026-06-09T05:53:24.088416,1.00271774,.00019133,0.0184,352.1249,87.6694,139.1860,0,U,57493,999,1046,0,.65E-6,0
LUDI TANCE-4 01A,2023-120A,2026-06-07T15:38:35.206368,1.00271349,.00008258,15.1081,194.2074,74.7479,311.4666,0,U,57624,999,1045,0,-.162E-5,0
TJS-10,2023-169A,2026-06-08T18:43:13.583712,1.00267539,.0003988,2.5218,80.5904,99.7137,90.0580,0,U,58204,999,945,0,-.232E-5,0
ZHONGXING-6E,2023-172A,2026-06-09T07:02:33.356832,1.00269026,.00024293,0.0161,16.6097,64.9213,37.3071,0,U,58253,999,958,0,-.344E-5,0
YAOGAN-41,2023-197A,2026-06-09T07:04:40.653408,1.00274866,.00140971,3.1439,313.0037,193.0380,340.9795,0,U,58582,999,924,0,-.347E-5,0
OVZON-3,2024-003A,2026-06-09T05:03:59.137632,1.00268715,.0000141,0.0056,284.8156,23.3833,85.0860,0,U,58698,999,736,0,.69E-6,0
INSAT-3DS,2024-033A,2026-06-09T01:45:01.776672,1.00272939,.00012298,0.0151,152.7656,281.1643,291.8663,0,U,58990,999,4698,0,-.14E-5,0
MERAH PUTIH 2,2024-035A,2026-06-09T07:01:48.428832,1.00267835,.00010464,0.0175,334.8302,104.6155,36.6301,0,U,58995,999,851,0,0,0
TJS-11,2024-037A,2026-06-07T15:04:52.671360,1.00174849,.0005501,4.2123,326.9451,181.0800,86.5687,0,U,59020,999,848,0,-.345E-5,0
HULIANWAN GAOGUI-01 (HG-01),2024-040A,2026-06-09T04:56:29.855904,1.00271589,.00031702,0.0673,328.9799,71.4690,324.8874,0,U,59069,999,724,0,.173E-5,0
EUTELSAT 36D,2024-059A,2026-06-09T06:39:51.794784,1.00270809,.00003433,0.0180,13.4449,162.2272,217.8322,0,U,59346,999,806,0,.172E-5,0
PAKSAT-MM1,2024-104A,2026-06-09T06:40:29.235360,1.00272481,.00020083,0.0311,97.9512,330.0741,327.9276,0,U,59915,999,744,0,.17E-5,0
ASTRA 1P (SES-24),2024-115A,2026-06-09T03:09:49.042368,1.00270234,.00008693,0.0552,6.4467,317.3959,0.3293,0,U,60086,999,711,0,.136E-5,0
GOES 19,2024-119A,2026-06-09T04:25:32.122848,1.00271953,.00004574,0.0379,164.0820,345.7919,98.8894,0,U,60133,999,688,0,-.232E-5,0
ZHONGXING-3A,2024-122A,2026-06-06T20:22:21.679392,1.00273610,.000141,0.0425,119.1641,341.0815,202.1910,0,U,60179,999,720,0,-.3E-5,0
TURKSAT 6A,2024-127A,2026-06-09T04:58:52.129056,1.00271988,.00016245,0.0143,169.1046,327.1189,238.0773,0,U,60233,999,693,0,0,0
HULIANWAN GAOGUI-02 (HG-02),2024-135A,2026-06-09T05:30:35.679168,1.00268711,.00075285,0.0427,353.5574,13.9540,125.9290,0,U,60327,999,742,0,-.156E-5,0
ZHONGXING-4A,2024-151A,2026-06-09T07:03:18.284832,1.00269439,.00004894,1.3358,270.9318,211.7522,359.0358,0,U,60606,999,667,0,-.345E-5,0
HULIANWAN GAOGUI-03 (HG-03),2024-181A,2026-06-08T13:00:57.339648,1.00266015,.00012935,0.0452,355.5883,106.2275,273.1815,0,U,61503,999,673,0,-.225E-5,0
DSN-3 (KIRAMEKI-3),2024-198A,2026-06-09T07:10:40.079136,1.00270208,.00008955,0.0157,291.1295,225.9715,352.3125,0,U,61733,999,584,0,-.233E-5,0
KOREASAT 6A,2024-206A,2026-06-09T01:49:38.687808,1.00272075,.00009097,0.0410,134.5680,283.0920,343.2187,0,U,61910,999,575,0,-.345E-5,0
OPTUS-X (ADS-01),2024-212A,2026-06-09T06:53:06.884736,1.00270913,.00017027,0.0195,328.0339,150.1887,39.1305,0,U,62006,999,568,0,-.127E-5,0
GSAT-N2 (GSAT-20),2024-214A,2026-06-09T04:52:21.398880,1.00269091,.00020219,0.0155,154.8435,277.1750,326.6696,0,U,62028,999,581,0,-.3E-7,0
SXM-9,2024-234A,2026-06-08T21:32:02.222880,1.00271326,.00049049,0.0166,319.2053,356.9356,179.0016,0,U,62259,999,549,0,-.189E-5,0
TJS-12,2024-246A,2026-06-08T20:55:27.054624,1.00272268,.00021907,0.6896,298.3112,86.5276,332.8432,0,U,62374,999,548,0,-.214E-5,0
